{"":["Friday Night Fever","Vs Pocoyo"],"Friday Night Fever":[{"name":"BDBFever","path":"Friday Night Fever/BDBFever","thumb":"Friday Night Fever/BDBFever/thumbnail.png","zip":"Friday Night Fever/BDBFever/BDBFever.zip"},{"name":"CedarHD","path":"Friday Night Fever/CedarHD","thumb":"Friday Night Fever/CedarHD/thumbnail.png","zip":"Friday Night Fever/CedarHD/CedarHD.zip"},{"name":"GF_assets","path":"Friday Night Fever/GF_assets","thumb":"Friday Night Fever/GF_assets/thumbnail.png","zip":"Friday Night Fever/GF_assets/GF_assets.zip"},{"name":"Hallow","path":"Friday Night Fever/Hallow","thumb":"Friday Night Fever/Hallow/thumbnail.png","zip":"Friday Night Fever/Hallow/Hallow.zip"},{"name":"Mako","path":"Friday Night Fever/Mako","thumb":"Friday Night Fever/Mako/thumbnail.png","zip":"Friday Night Fever/Mako/Mako.zip"},{"name":"Mako_Demon","path":"Friday Night Fever/Mako_Demon","thumb":"Friday Night Fever/Mako_Demon/thumbnail.png","zip":"Friday Night Fever/Mako_Demon/Mako_Demon.zip"},{"name":"Scarlet_Final","path":"Friday Night Fever/Scarlet_Final","thumb":"Friday Night Fever/Scarlet_Final/thumbnail.png","zip":"Friday Night Fever/Scarlet_Final/Scarlet_Final.zip"},{"name":"Scarlet_Freeplay","path":"Friday Night Fever/Scarlet_Freeplay","thumb":"Friday Night Fever/Scarlet_Freeplay/thumbnail.png","zip":"Friday Night Fever/Scarlet_Freeplay/Scarlet_Freeplay.zip"},{"name":"bday","path":"Friday Night Fever/bday","thumb":"Friday Night Fever/bday/thumbnail.png","zip":"Friday Night Fever/bday/bday.zip"},{"name":"car","path":"Friday Night Fever/car","thumb":"Friday Night Fever/car/thumbnail.png","zip":"Friday Night Fever/car/car.zip"},{"name":"casual_demon","path":"Friday Night Fever/casual_demon","thumb":"Friday Night Fever/casual_demon/thumbnail.png","zip":"Friday Night Fever/casual_demon/casual_demon.zip"},{"name":"casual_fever","path":"Friday Night Fever/casual_fever","thumb":"Friday Night Fever/casual_fever/thumbnail.png","zip":"Friday Night Fever/casual_fever/casual_fever.zip"},{"name":"ceabun","path":"Friday Night Fever/ceabun","thumb":"Friday Night Fever/ceabun/thumbnail.png","zip":"Friday Night Fever/ceabun/ceabun.zip"},{"name":"coat_fvr","path":"Friday Night Fever/coat_fvr","thumb":"Friday Night Fever/coat_fvr/thumbnail.png","zip":"Friday Night Fever/coat_fvr/coat_fvr.zip"},{"name":"demon_fever_assets","path":"Friday Night Fever/demon_fever_assets","thumb":"Friday Night Fever/demon_fever_assets/thumbnail.png","zip":"Friday Night Fever/demon_fever_assets/demon_fever_assets.zip"},{"name":"demon_fever_assets_week4","path":"Friday Night Fever/demon_fever_assets_week4","thumb":"Friday Night Fever/demon_fever_assets_week4/thumbnail.png","zip":"Friday Night Fever/demon_fever_assets_week4/demon_fever_assets_week4.zip"},{"name":"doodle","path":"Friday Night Fever/doodle","thumb":"Friday Night Fever/doodle/thumbnail.png","zip":"Friday Night Fever/doodle/doodle.zip"},{"name":"feral_wee_assets","path":"Friday Night Fever/feral_wee_assets","thumb":"Friday Night Fever/feral_wee_assets/thumbnail.png","zip":"Friday Night Fever/feral_wee_assets/feral_wee_assets.zip"},{"name":"fever","path":"Friday Night Fever/fever","thumb":"Friday Night Fever/fever/thumbnail.png","zip":"Friday Night Fever/fever/fever.zip"},{"name":"fever_fall","path":"Friday Night Fever/fever_fall","thumb":"Friday Night Fever/fever_fall/thumbnail.png","zip":"Friday Night Fever/fever_fall/fever_fall.zip"},{"name":"fever_mad","path":"Friday Night Fever/fever_mad","thumb":"Friday Night Fever/fever_mad/thumbnail.png","zip":"Friday Night Fever/fever_mad/fever_mad.zip"},{"name":"fever_mad_glow","path":"Friday Night Fever/fever_mad_glow","thumb":"Friday Night Fever/fever_mad_glow/thumbnail.png","zip":"Friday Night Fever/fever_mad_glow/fever_mad_glow.zip"},{"name":"fever_rolldog","path":"Friday Night Fever/fever_rolldog","thumb":"Friday Night Fever/fever_rolldog/thumbnail.png","zip":"Friday Night Fever/fever_rolldog/fever_rolldog.zip"},{"name":"fever_week4","path":"Friday Night Fever/fever_week4","thumb":"Friday Night Fever/fever_week4/thumbnail.png","zip":"Friday Night Fever/fever_week4/fever_week4.zip"},{"name":"feveriso","path":"Friday Night Fever/feveriso","thumb":"Friday Night Fever/feveriso/thumbnail.png","zip":"Friday Night Fever/feveriso/feveriso.zip"},{"name":"final","path":"Friday Night Fever/final","thumb":"Friday Night Fever/final/thumbnail.png","zip":"Friday Night Fever/final/final.zip"},{"name":"flippy","path":"Friday Night Fever/flippy","thumb":"Friday Night Fever/flippy/thumbnail.png","zip":"Friday Night Fever/flippy/flippy.zip"},{"name":"flu","path":"Friday Night Fever/flu","thumb":"Friday Night Fever/flu/thumbnail.png","zip":"Friday Night Fever/flu/flu.zip"},{"name":"flying","path":"Friday Night Fever/flying","thumb":"Friday Night Fever/flying/thumbnail.png","zip":"Friday Night Fever/flying/flying.zip"},{"name":"freeplay","path":"Friday Night Fever/freeplay","thumb":"Friday Night Fever/freeplay/thumbnail.png","zip":"Friday Night Fever/freeplay/freeplay.zip"},{"name":"hallow_dum","path":"Friday Night Fever/hallow_dum","thumb":"Friday Night Fever/hallow_dum/thumbnail.png","zip":"Friday Night Fever/hallow_dum/hallow_dum.zip"},{"name":"his_fucking_arm","path":"Friday Night Fever/his_fucking_arm","thumb":"Friday Night Fever/his_fucking_arm/thumbnail.png","zip":"Friday Night Fever/his_fucking_arm/his_fucking_arm.zip"},{"name":"m_robo","path":"Friday Night Fever/m_robo","thumb":"Friday Night Fever/m_robo/thumbnail.png","zip":"Friday Night Fever/m_robo/m_robo.zip"},{"name":"mcdietis","path":"Friday Night Fever/mcdietis","thumb":"Friday Night Fever/mcdietis/thumbnail.png","zip":"Friday Night Fever/mcdietis/mcdietis.zip"},{"name":"meat","path":"Friday Night Fever/meat","thumb":"Friday Night Fever/meat/thumbnail.png","zip":"Friday Night Fever/meat/meat.zip"},{"name":"mega","path":"Friday Night Fever/mega","thumb":"Friday Night Fever/mega/thumbnail.png","zip":"Friday Night Fever/mega/mega.zip"},{"name":"minus_fever","path":"Friday Night Fever/minus_fever","thumb":"Friday Night Fever/minus_fever/thumbnail.png","zip":"Friday Night Fever/minus_fever/minus_fever.zip"},{"name":"momCar","path":"Friday Night Fever/momCar","thumb":"Friday Night Fever/momCar/thumbnail.png","zip":"Friday Night Fever/momCar/momCar.zip"},{"name":"momCarNIGHT","path":"Friday Night Fever/momCarNIGHT","thumb":"Friday Night Fever/momCarNIGHT/thumbnail.png","zip":"Friday Night Fever/momCarNIGHT/momCarNIGHT.zip"},{"name":"mongus","path":"Friday Night Fever/mongus","thumb":"Friday Night Fever/mongus/thumbnail.png","zip":"Friday Night Fever/mongus/mongus.zip"},{"name":"mtaki_assets","path":"Friday Night Fever/mtaki_assets","thumb":"Friday Night Fever/mtaki_assets/thumbnail.png","zip":"Friday Night Fever/mtaki_assets/mtaki_assets.zip"},{"name":"mtale","path":"Friday Night Fever/mtale","thumb":"Friday Night Fever/mtale/thumbnail.png","zip":"Friday Night Fever/mtale/mtale.zip"},{"name":"numberone","path":"Friday Night Fever/numberone","thumb":"Friday Night Fever/numberone/thumbnail.png","zip":"Friday Night Fever/numberone/numberone.zip"},{"name":"nun","path":"Friday Night Fever/nun","thumb":"Friday Night Fever/nun/thumbnail.png","zip":"Friday Night Fever/nun/nun.zip"},{"name":"old","path":"Friday Night Fever/old","thumb":"Friday Night Fever/old/thumbnail.png","zip":"Friday Night Fever/old/old.zip"},{"name":"paste","path":"Friday Night Fever/paste","thumb":"Friday Night Fever/paste/thumbnail.png","zip":"Friday Night Fever/paste/paste.zip"},{"name":"pasteMad","path":"Friday Night Fever/pasteMad","thumb":"Friday Night Fever/pasteMad/thumbnail.png","zip":"Friday Night Fever/pasteMad/pasteMad.zip"},{"name":"peakek","path":"Friday Night Fever/peakek","thumb":"Friday Night Fever/peakek/thumbnail.png","zip":"Friday Night Fever/peakek/peakek.zip"},{"name":"peasus","path":"Friday Night Fever/peasus","thumb":"Friday Night Fever/peasus/thumbnail.png","zip":"Friday Night Fever/peasus/peasus.zip"},{"name":"pepp","path":"Friday Night Fever/pepp","thumb":"Friday Night Fever/pepp/thumbnail.png","zip":"Friday Night Fever/pepp/pepp.zip"},{"name":"perspective","path":"Friday Night Fever/perspective","thumb":"Friday Night Fever/perspective/thumbnail.png","zip":"Friday Night Fever/perspective/perspective.zip"},{"name":"pixel","path":"Friday Night Fever/pixel","thumb":"Friday Night Fever/pixel/thumbnail.png","zip":"Friday Night Fever/pixel/pixel.zip"},{"name":"pixel-demon","path":"Friday Night Fever/pixel-demon","thumb":"Friday Night Fever/pixel-demon/thumbnail.png","zip":"Friday Night Fever/pixel-demon/pixel-demon.zip"},{"name":"robo_fall","path":"Friday Night Fever/robo_fall","thumb":"Friday Night Fever/robo_fall/thumbnail.png","zip":"Friday Night Fever/robo_fall/robo_fall.zip"},{"name":"robo_fall_cool","path":"Friday Night Fever/robo_fall_cool","thumb":"Friday Night Fever/robo_fall_cool/thumbnail.png","zip":"Friday Night Fever/robo_fall_cool/robo_fall_cool.zip"},{"name":"robo_fever_assets","path":"Friday Night Fever/robo_fever_assets","thumb":"Friday Night Fever/robo_fever_assets/thumbnail.png","zip":"Friday Night Fever/robo_fever_assets/robo_fever_assets.zip"},{"name":"robo_final_glow","path":"Friday Night Fever/robo_final_glow","thumb":"Friday Night Fever/robo_final_glow/thumbnail.png","zip":"Friday Night Fever/robo_final_glow/robo_final_glow.zip"},{"name":"rolldog","path":"Friday Night Fever/rolldog","thumb":"Friday Night Fever/rolldog/thumbnail.png","zip":"Friday Night Fever/rolldog/rolldog.zip"},{"name":"shelter","path":"Friday Night Fever/shelter","thumb":"Friday Night Fever/shelter/thumbnail.png","zip":"Friday Night Fever/shelter/shelter.zip"},{"name":"skelly","path":"Friday Night Fever/skelly","thumb":"Friday Night Fever/skelly/thumbnail.png","zip":"Friday Night Fever/skelly/skelly.zip"},{"name":"soulsplit","path":"Friday Night Fever/soulsplit","thumb":"Friday Night Fever/soulsplit/thumbnail.png","zip":"Friday Night Fever/soulsplit/soulsplit.zip"},{"name":"spooky_kids_assets","path":"Friday Night Fever/spooky_kids_assets","thumb":"Friday Night Fever/spooky_kids_assets/thumbnail.png","zip":"Friday Night Fever/spooky_kids_assets/spooky_kids_assets.zip"},{"name":"taki","path":"Friday Night Fever/taki","thumb":"Friday Night Fever/taki/thumbnail.png","zip":"Friday Night Fever/taki/taki.zip"},{"name":"taki_assets","path":"Friday Night Fever/taki_assets","thumb":"Friday Night Fever/taki_assets/thumbnail.png","zip":"Friday Night Fever/taki_assets/taki_assets.zip"},{"name":"tanner","path":"Friday Night Fever/tanner","thumb":"Friday Night Fever/tanner/thumbnail.png","zip":"Friday Night Fever/tanner/tanner.zip"},{"name":"tea_bat","path":"Friday Night Fever/tea_bat","thumb":"Friday Night Fever/tea_bat/thumbnail.png","zip":"Friday Night Fever/tea_bat/tea_bat.zip"},{"name":"tea_fight","path":"Friday Night Fever/tea_fight","thumb":"Friday Night Fever/tea_fight/thumbnail.png","zip":"Friday Night Fever/tea_fight/tea_fight.zip"},{"name":"teasar","path":"Friday Night Fever/teasar","thumb":"Friday Night Fever/teasar/thumbnail.png","zip":"Friday Night Fever/teasar/teasar.zip"},{"name":"tutorial_fevr","path":"Friday Night Fever/tutorial_fevr","thumb":"Friday Night Fever/tutorial_fevr/thumbnail.png","zip":"Friday Night Fever/tutorial_fevr/tutorial_fevr.zip"},{"name":"worried","path":"Friday Night Fever/worried","thumb":"Friday Night Fever/worried/thumbnail.png","zip":"Friday Night Fever/worried/worried.zip"},{"name":"yukichiPixel","path":"Friday Night Fever/yukichiPixel","thumb":"Friday Night Fever/yukichiPixel/thumbnail.png","zip":"Friday Night Fever/yukichiPixel/yukichiPixel.zip"},{"name":"yukichi_leader_assets","path":"Friday Night Fever/yukichi_leader_assets","thumb":"Friday Night Fever/yukichi_leader_assets/thumbnail.png","zip":"Friday Night Fever/yukichi_leader_assets/yukichi_leader_assets.zip"}],"Vs Pocoyo":[{"name":"POCOYO","path":"Vs Pocoyo/POCOYO","thumb":"Vs Pocoyo/POCOYO/thumbnail.png","zip":"Vs Pocoyo/POCOYO/POCOYO.zip"}]}